{"type": "FeatureCollection", "features": [ {"type": "Feature", "properties": {"norad_id": 42917, "name": "QZS-3 (QZSS/PRN 199)", "group": "gnss", "lat": 0.06206823207497025, "lon": -64.74368046220505, "alt_km": 35784.06134931869, "timestamp": "2025-12-02T06:27:53.256957+00:00", "meta": {"OBJECT_NAME": "QZS-3 (QZSS/PRN 199)", "OBJECT_ID": "2017-048A", "EPOCH": "2025-12-01T19:33:18.784800", "MEAN_MOTION": 1.00265277, "ECCENTRICITY": 0.0001317, "INCLINATION": 0.076, "RA_OF_ASC_NODE": 225.4123, "ARG_OF_PERICENTER": 24.2886, "MEAN_ANOMALY": 241.4926, "EPHEMERIS_TYPE": 0, "CLASSIFICATION_TYPE": "U", "NORAD_CAT_ID": 42917, "ELEMENT_SET_NO": 999, "REV_AT_EPOCH": 3028, "BSTAR": 0, "MEAN_MOTION_DOT": -3.27e-06, "MEAN_MOTION_DDOT": 0}, "tle": {"line1": "1 42917U 17048A   25335.81480075 -.00000327  00000+0  00000+0 0  9995", "line2": "2 42917   0.0760 225.4123 0001317  24.2886 241.4926  1.00265277 30280"}}, "geometry": {"type": "Point", "coordinates": [-64.74368046220505, 0.06206823207497025]}}, {"type": "Feature", "properties": {"norad_id": 42939, "name": "COSMOS 2522 (752)", "group": "gnss", "lat": -0.29348321609463374, "lon": 18.730334738939604, "alt_km": 19118.832644630904, "timestamp": "2025-12-02T06:27:53.256968+00:00", "meta": {"OBJECT_NAME": "COSMOS 2522 (752)", "OBJECT_ID": "2017-055A", "EPOCH": "2025-12-01T13:33:34.905312", "MEAN_MOTION": 2.13101875, "ECCENTRICITY": 0.0006558, "INCLINATION": 64.0757, "RA_OF_ASC_NODE": 198.6097, "ARG_OF_PERICENTER": 226.2705, "MEAN_ANOMALY": 133.7684, "EPHEMERIS_TYPE": 0, "CLASSIFICATION_TYPE": "U", "NORAD_CAT_ID": 42939, "ELEMENT_SET_NO": 999, "REV_AT_EPOCH": 6376, "BSTAR": 0, "MEAN_MOTION_DOT": 1.03e-06, "MEAN_MOTION_DDOT": 0}, "tle": {"line1": "1 42939U 17055A   25335.56498733  .00000103  00000+0  00000+0 0  9990", "line2": "2 42939  64.0757 198.6097 0006558 226.2705 133.7684  2.13101875 63768"}}, "geometry": {"type": "Point", "coordinates": [18.730334738939604, -0.29348321609463374]}}, {"type": "Feature", "properties": {"norad_id": 42965, "name": "QZS-4 (QZSS/PRN 195)", "group": "gnss", "lat": -20.926129279571263, "lon": -40.879422002097535, "alt_km": 33825.343270591955, "timestamp": "2025-12-02T06:27:53.256979+00:00", "meta": {"OBJECT_NAME": "QZS-4 (QZSS/PRN 195)", "OBJECT_ID": "2017-062A", "EPOCH": "2025-11-30T08:44:38.860224", "MEAN_MOTION": 1.00255929, "ECCENTRICITY": 0.07523208, "INCLINATION": 40.233, "RA_OF_ASC_NODE": 346.0314, "ARG_OF_PERICENTER": 271.1913, "MEAN_ANOMALY": 80.7722, "EPHEMERIS_TYPE": 0, "CLASSIFICATION_TYPE": "U", "NORAD_CAT_ID": 42965, "ELEMENT_SET_NO": 999, "REV_AT_EPOCH": 2981, "BSTAR": 0, "MEAN_MOTION_DOT": -3.04e-06, "MEAN_MOTION_DDOT": 0}, "tle": {"line1": "1 42965U 17062A   25334.36433866 -.00000304  00000+0  00000+0 0  9994", "line2": "2 42965  40.2330 346.0314 0752320 271.1913  80.7722  1.00255929 29813"}}, "geometry": {"type": "Point", "coordinates": [-40.879422002097535, -20.926129279571263]}}, {"type": "Feature", "properties": {"norad_id": 43001, "name": "BEIDOU-3 M1 (C19)", "group": "gnss", "lat": 37.383213279605826, "lon": -140.75281918918628, "alt_km": 21547.432416807707, "timestamp": "2025-12-02T06:27:53.256991+00:00", "meta": {"OBJECT_NAME": "BEIDOU-3 M1 (C19)", "OBJECT_ID": "2017-069A", "EPOCH": "2025-11-30T11:01:49.166976", "MEAN_MOTION": 1.86230859, "ECCENTRICITY": 0.00086901, "INCLINATION": 56.5161, "RA_OF_ASC_NODE": 69.6405, "ARG_OF_PERICENTER": 303.5198, "MEAN_ANOMALY": 56.4027, "EPHEMERIS_TYPE": 0, "CLASSIFICATION_TYPE": "U", "NORAD_CAT_ID": 43001, "ELEMENT_SET_NO": 999, "REV_AT_EPOCH": 5490, "BSTAR": 0, "MEAN_MOTION_DOT": -3.3e-07, "MEAN_MOTION_DDOT": 0}, "tle": {"line1": "1 43001U 17069A   25334.45959684 -.00000033  00000+0  00000+0 0  9993", "line2": "2 43001  56.5161  69.6405 0008690 303.5198  56.4027  1.86230859 54900"}}, "geometry": {"type": "Point", "coordinates": [-140.75281918918628, 37.383213279605826]}}, {"type": "Feature", "properties": {"norad_id": 43002, "name": "BEIDOU-3 M2 (C20)", "group": "gnss", "lat": 4.433883357936371, "lon": -113.32314139174889, "alt_km": 21543.72053341558, "timestamp": "2025-12-02T06:27:53.257002+00:00", "meta": {"OBJECT_NAME": "BEIDOU-3 M2 (C20)", "OBJECT_ID": "2017-069B", "EPOCH": "2025-11-30T22:26:15.226080", "MEAN_MOTION": 1.86230641, "ECCENTRICITY": 0.000614, "INCLINATION": 56.5161, "RA_OF_ASC_NODE": 69.6603, "ARG_OF_PERICENTER": 332.5707, "MEAN_ANOMALY": 27.401, "EPHEMERIS_TYPE": 0, "CLASSIFICATION_TYPE": "U", "NORAD_CAT_ID": 43002, "ELEMENT_SET_NO": 999, "REV_AT_EPOCH": 5490, "BSTAR": 0, "MEAN_MOTION_DOT": -3.7e-07, "MEAN_MOTION_DDOT": 0}, "tle": {"line1": "1 43002U 17069B   25334.93489845 -.00000037  00000+0  00000+0 0  9998", "line2": "2 43002  56.5161  69.6603 0006140 332.5707  27.4010  1.86230641 54906"}}, "geometry": {"type": "Point", "coordinates": [-113.32314139174889, 4.433883357936371]}}, {"type": "Feature", "properties": {"norad_id": 43055, "name": "GSAT0215 (GALILEO 19)", "group": "gnss", "lat": -25.678293750321703, "lon": 66.48117847238571, "alt_km": 23226.303906529414, "timestamp": "2025-12-02T06:27:53.257015+00:00", "meta": {"OBJECT_NAME": "GSAT0215 (GALILEO 19)", "OBJECT_ID": "2017-079A", "EPOCH": "2025-11-29T13:52:03.216864", "MEAN_MOTION": 1.70473718, "ECCENTRICITY": 0.0001588, "INCLINATION": 55.1353, "RA_OF_ASC_NODE": 227.0004, "ARG_OF_PERICENTER": 310.5234, "MEAN_ANOMALY": 49.536, "EPHEMERIS_TYPE": 0, "CLASSIFICATION_TYPE": "U", "NORAD_CAT_ID": 43055, "ELEMENT_SET_NO": 999, "REV_AT_EPOCH": 4958, "BSTAR": 0, "MEAN_MOTION_DOT": 2.7e-07, "MEAN_MOTION_DDOT": 0}, "tle": {"line1": "1 43055U 17079A   25333.57781501  .00000027  00000+0  00000+0 0  9998", "line2": "2 43055  55.1353 227.0004 0001588 310.5234  49.5360  1.70473718 49587"}}, "geometry": {"type": "Point", "coordinates": [66.48117847238571, -25.678293750321703]}}, {"type": "Feature", "properties": {"norad_id": 43056, "name": "GSAT0216 (GALILEO 20)", "group": "gnss", "lat": 26.61886162148167, "lon": -112.65389198188264, "alt_km": 23217.633260990082, "timestamp": "2025-12-02T06:27:53.257026+00:00", "meta": {"OBJECT_NAME": "GSAT0216 (GALILEO 20)", "OBJECT_ID": "2017-079B", "EPOCH": "2025-12-01T01:00:54.249120", "MEAN_MOTION": 1.70473856, "ECCENTRICITY": 0.00027137, "INCLINATION": 55.1346, "RA_OF_ASC_NODE": 226.9601, "ARG_OF_PERICENTER": 312.5245, "MEAN_ANOMALY": 47.5297, "EPHEMERIS_TYPE": 0, "CLASSIFICATION_TYPE": "U", "NORAD_CAT_ID": 43056, "ELEMENT_SET_NO": 999, "REV_AT_EPOCH": 4962, "BSTAR": 0, "MEAN_MOTION_DOT": 3.1e-07, "MEAN_MOTION_DDOT": 0}, "tle": {"line1": "1 43056U 17079B   25335.04229455  .00000031  00000+0  00000+0 0  9993", "line2": "2 43056  55.1346 226.9601 0002713 312.5245  47.5297  1.70473856 49621"}}, "geometry": {"type": "Point", "coordinates": [-112.65389198188264, 26.61886162148167]}}, {"type": "Feature", "properties": {"norad_id": 43057, "name": "GSAT0217 (GALILEO 21)", "group": "gnss", "lat": -53.2792981938092, "lon": 115.88278863345032, "alt_km": 23227.044511548596, "timestamp": "2025-12-02T06:27:53.257076+00:00", "meta": {"OBJECT_NAME": "GSAT0217 (GALILEO 21)", "OBJECT_ID": "2017-079C", "EPOCH": "2025-11-29T12:04:41.145600", "MEAN_MOTION": 1.70473704, "ECCENTRICITY": 0.00027563, "INCLINATION": 55.1326, "RA_OF_ASC_NODE": 227.0006, "ARG_OF_PERICENTER": 340.6935, "MEAN_ANOMALY": 19.3693, "EPHEMERIS_TYPE": 0, "CLASSIFICATION_TYPE": "U", "NORAD_CAT_ID": 43057, "ELEMENT_SET_NO": 999, "REV_AT_EPOCH": 4958, "BSTAR": 0, "MEAN_MOTION_DOT": 2.7e-07, "MEAN_MOTION_DDOT": 0}, "tle": {"line1": "1 43057U 17079C   25333.50325400  .00000027  00000+0  00000+0 0  9995", "line2": "2 43057  55.1326 227.0006 0002756 340.6935  19.3693  1.70473704 49580"}}, "geometry": {"type": "Point", "coordinates": [115.88278863345032, -53.2792981938092]}}, {"type": "Feature", "properties": {"norad_id": 43058, "name": "GSAT0218 (GALILEO 22)", "group": "gnss", "lat": 43.754651606423835, "lon": 5.121325629507589, "alt_km": 23225.64280214719, "timestamp": "2025-12-02T06:27:53.257091+00:00", "meta": {"OBJECT_NAME": "GSAT0218 (GALILEO 22)", "OBJECT_ID": "2017-079D", "EPOCH": "2025-11-30T07:26:14.163360", "MEAN_MOTION": 1.70473798, "ECCENTRICITY": 0.0002943, "INCLINATION": 55.1332, "RA_OF_ASC_NODE": 226.9759, "ARG_OF_PERICENTER": 303.6931, "MEAN_ANOMALY": 56.3534, "EPHEMERIS_TYPE": 0, "CLASSIFICATION_TYPE": "U", "NORAD_CAT_ID": 43058, "ELEMENT_SET_NO": 999, "REV_AT_EPOCH": 4962, "BSTAR": 0, "MEAN_MOTION_DOT": 2.9e-07, "MEAN_MOTION_DDOT": 0}, "tle": {"line1": "1 43058U 17079D   25334.30988615  .00000029  00000+0  00000+0 0  9990", "line2": "2 43058  55.1332 226.9759 0002943 303.6931  56.3534  1.70473798 49627"}}, "geometry": {"type": "Point", "coordinates": [5.121325629507589, 43.754651606423835]}}, {"type": "Feature", "properties": {"norad_id": 43107, "name": "BEIDOU-3 M7 (C27)", "group": "gnss", "lat": -10.659897639840379, "lon": -58.55549902420944, "alt_km": 21528.82821338326, "timestamp": "2025-12-02T06:27:53.257102+00:00", "meta": {"OBJECT_NAME": "BEIDOU-3 M7 (C27)", "OBJECT_ID": "2018-003A", "EPOCH": "2025-12-01T05:09:41.465664", "MEAN_MOTION": 1.86232281, "ECCENTRICITY": 0.00025722, "INCLINATION": 54.507, "RA_OF_ASC_NODE": 309.2159, "ARG_OF_PERICENTER": 71.057, "MEAN_ANOMALY": 288.9652, "EPHEMERIS_TYPE": 0, "CLASSIFICATION_TYPE": "U", "NORAD_CAT_ID": 43107, "ELEMENT_SET_NO": 999, "REV_AT_EPOCH": 5366, "BSTAR": 0, "MEAN_MOTION_DOT": -5.7e-07, "MEAN_MOTION_DDOT": 0}, "tle": {"line1": "1 43107U 18003A   25335.21506326 -.00000057  00000+0  00000+0 0  9991", "line2": "2 43107  54.5070 309.2159 0002572  71.0570 288.9652  1.86232281 53666"}}, "geometry": {"type": "Point", "coordinates": [-58.55549902420944, -10.659897639840379]}}]}